[{"OBJECT_NAME":"STARLINK-1262","OBJECT_ID":"2020-019G","EPOCH":"2026-03-10T00:00:02.999808","MEAN_MOTION":15.29253849,"ECCENTRICITY":9.787e-5,"INCLINATION":53.1531,"RA_OF_ASC_NODE":163.6731,"ARG_OF_PERICENTER":66.1487,"MEAN_ANOMALY":301.9204,"EPHEMERIS_TYPE":0,"CLASSIFICATION_TYPE":"U","NORAD_CAT_ID":45366,"ELEMENT_SET_NO":999,"REV_AT_EPOCH":569,"BSTAR":0.0025443873,"MEAN_MOTION_DOT":0.00073562,"MEAN_MOTION_DDOT":0},{"OBJECT_NAME":"COSMOS 249 DEB","OBJECT_ID":"1968-091DJ","EPOCH":"2026-03-09T22:59:41.072064","MEAN_MOTION":14.2447733,"ECCENTRICITY":0.04678273,"INCLINATION":62.7651,"RA_OF_ASC_NODE":269.2895,"ARG_OF_PERICENTER":43.0913,"MEAN_ANOMALY":320.579,"EPHEMERIS_TYPE":0,"CLASSIFICATION_TYPE":"U","NORAD_CAT_ID":19362,"ELEMENT_SET_NO":999,"REV_AT_EPOCH":90582,"BSTAR":0.0013749035,"MEAN_MOTION_DOT":0.00010099,"MEAN_MOTION_DDOT":0}]
